{
  "norad_id": 53856,
  "name": "STARLINK-4795",
  "history": [
    {
      "epoch": "2026-03-28T17:16:14.081088",
      "apogee_km": 540.5383693697122,
      "perigee_km": 538.8476517151357,
      "latitude_deg": -13.755056113812099,
      "longitude_deg": -5.317687679780647,
      "semi_major_axis_km": 6917.830010542423,
      "eccentricity": 0.0001222,
      "inclination_deg": 53.2151,
      "raan_deg": 198.7736,
      "arg_perigee_deg": 87.7769,
      "mean_anomaly_deg": 272.3363,
      "mean_motion_rev_day": 15.08856482
    }
  ]
}